[Satellite]
VERSION=1.1
NAME=COSMOS 2527 (756)
NICKNAME=COSMOS 2527 (756)
TLE1=1 43508U 18053A   22342.03886719  .00000002  00000+0  00000+0 0  9992
TLE2=2 43508  65.0124 117.0169 0007700 213.1611 250.2406  2.13102486 34849
STATUS=0
